[{"OBJECT_NAME":"STARLINK-5305","OBJECT_ID":"2023-010AX","EPOCH":"2026-03-09T23:24:48.397824","MEAN_MOTION":14.983289,"ECCENTRICITY":0.00027201,"INCLINATION":70.001,"RA_OF_ASC_NODE":3.7935,"ARG_OF_PERICENTER":272.9797,"MEAN_ANOMALY":87.1051,"EPHEMERIS_TYPE":0,"CLASSIFICATION_TYPE":"U","NORAD_CAT_ID":55314,"ELEMENT_SET_NO":999,"REV_AT_EPOCH":17468,"BSTAR":-4.3090972e-5,"MEAN_MOTION_DOT":-6.07e-6,"MEAN_MOTION_DDOT":0},{"OBJECT_NAME":"KORSAT-7","OBJECT_ID":"2023-185B","EPOCH":"2026-03-09T23:44:55.136256","MEAN_MOTION":15.00898391,"ECCENTRICITY":0.00224341,"INCLINATION":97.6243,"RA_OF_ASC_NODE":135.089,"ARG_OF_PERICENTER":307.6562,"MEAN_ANOMALY":52.2627,"EPHEMERIS_TYPE":0,"CLASSIFICATION_TYPE":"U","NORAD_CAT_ID":58463,"ELEMENT_SET_NO":999,"REV_AT_EPOCH":12440,"BSTAR":0.00023536002,"MEAN_MOTION_DOT":2.951e-5,"MEAN_MOTION_DDOT":0}]
